[{"OBJECT_NAME":"BRITE-AUSTRIA","OBJECT_ID":"2013-009F","EPOCH":"2026-03-09T11:09:59.101632","MEAN_MOTION":14.3649602,"ECCENTRICITY":0.00103487,"INCLINATION":98.3955,"RA_OF_ASC_NODE":250.3783,"ARG_OF_PERICENTER":171.7863,"MEAN_ANOMALY":188.3495,"EPHEMERIS_TYPE":0,"CLASSIFICATION_TYPE":"U","NORAD_CAT_ID":39091,"ELEMENT_SET_NO":999,"REV_AT_EPOCH":68273,"BSTAR":0.00011657143,"MEAN_MOTION_DOT":3.0e-6,"MEAN_MOTION_DDOT":0},{"OBJECT_NAME":"SL-16 DEB","OBJECT_ID":"1992-093LT","EPOCH":"2026-03-07T05:53:56.505696","MEAN_MOTION":14.3877335,"ECCENTRICITY":0.0003891,"INCLINATION":71.0118,"RA_OF_ASC_NODE":280.7328,"ARG_OF_PERICENTER":141.7864,"MEAN_ANOMALY":218.3548,"EPHEMERIS_TYPE":0,"CLASSIFICATION_TYPE":"U","NORAD_CAT_ID":39865,"ELEMENT_SET_NO":999,"REV_AT_EPOCH":61456,"BSTAR":0.00072398,"MEAN_MOTION_DOT":2.176e-5,"MEAN_MOTION_DDOT":0}]
